0 COSMOS 1308
1 12835U 81091A   13282.84304609  .00000025  00000-0  98059-5 0  2747
2 12835 082.9235 020.5079 0028585 065.0293 082.8645 13.75270273608853
0 COSMOS 1308
1 12835U 81091A   13284.20330693  .00000036  00000-0  21863-4 0  2752
2 12835 082.9236 019.4970 0028534 061.3984 337.3148 13.75270266609041
0 COSMOS 1308
1 12835U 81091A   13285.44211661  .00000039  00000-0  24788-4 0  2765
2 12835 082.9237 018.5763 0028491 058.0581 350.5126 13.75270286609214
0 COSMOS 1308
1 12835U 81091A   13286.77362778  .00000053  00000-0  38819-4 0  2775
2 12835 082.9237 017.5868 0028424 054.4769 102.6549 13.75270110609393
0 COSMOS 1308
1 12835U 81091A   13287.79033243  .00000059  00000-0  45479-4 0  2787
2 12835 082.9236 016.8313 0028365 051.7066 096.2658 13.75270131609531
0 COSMOS 1308
1 12835U 81091A   13289.36989081  .00000066  00000-0  53232-4 0  2797
2 12835 082.9233 015.6575 0028266 047.3839 356.5328 13.75270263609750
0 COSMOS 1308
1 12835U 81091A   13290.39029142  .00000073  00000-0  60339-4 0  2801
2 12835 082.9231 014.8992 0028209 044.6202 008.4261 13.75270417609898
0 COSMOS 1308
1 12835U 81091A   13291.40821218  .00000070  00000-0  57425-4 0  2818
2 12835 082.9229 014.1426 0028150 041.8387 008.0663 13.75270644610030
0 COSMOS 1308
1 12835U 81091A   13292.80861164  .00000072  00000-0  59231-4 0  2827
2 12835 082.9227 013.1017 0028065 038.0180 101.3217 13.75270896610229
0 COSMOS 1308
1 12835U 81091A   13293.82708292  .00000063  00000-0  49387-4 0  2834
2 12835 082.9226 012.3448 0027985 035.2025 103.7214 13.75271088610366
0 COSMOS 1308
1 12835U 81091A   13295.18714696  .00000047  00000-0  33539-4 0  2845
2 12835 082.9226 011.3338 0027905 031.4798 357.2933 13.75271262610559
0 COSMOS 1308
1 12835U 81091A   13296.20580020  .00000054  00000-0  40112-4 0  2855
2 12835 082.9226 010.5767 0027829 028.6613 000.5982 13.75271449610699
